SZ-21 MODULE            
1 66515U 25246C   26064.48874604  .00042292  00000+0  36915-3 0  9996
2 66515  41.4735 229.2137 0001473 290.7926  69.2758 15.68168011 17412
SHENZHOU-22             
1 66645U 25272A   26064.55578758  .00019337  00000+0  23188-3 0  9990
2 66645  41.4657 233.3100 0006864 247.1832 112.8282 15.60433514267527
SOYUZ-MS 28             
1 66664U 25275A   26064.57663400  .00008552  00000+0  16617-3 0  9991
2 66664  51.6316  92.6910 0008154 159.9772 200.1537 15.48460413554522
DUPLEX                  
1 66906U 98067XS  26064.47590280  .00036643  00000+0  52303-3 0  9997
2 66906  51.6284  90.5226 0002118  94.8797 265.2436 15.55906862 14476
ISS OBJECT XT           
1 66907U 98067XT  26064.44146195  .00157068  00000+0  13790-2 0  9998
2 66907  51.6247  87.2807 0004657  52.1849 307.9568 15.67788238 14512
ISS OBJECT XU           
1 66908U 98067XU  26064.43995548  .00156104  00000+0  13656-2 0  9993
2 66908  51.6241  87.2668 0004712  54.5984 305.5452 15.67879938 14514
SILVERSAT               
1 66909U 98067XV  26064.25757578  .00191073  00000+0  15020-2 0  9994
2 66909  51.6245  87.5489 0005476  49.7289 310.4186 15.70352988 14496
ISS OBJECT XW           
1 66910U 98067XW  26064.43472883  .00138836  00000+0  12484-2 0  9998
2 66910  51.6238  87.2274 0004998  61.6511 298.4989 15.67264475 14516
ISS OBJECT XX           
1 66911U 98067XX  26064.45331095  .00241775  00000+0  16815-2 0  9999
2 66911  51.6212  85.8394 0007023  57.6386 302.5291 15.73087577 14520
ISS OBJECT XY           
1 66912U 98067XY  26064.36235530  .00095193  00000+0  10308-2 0  9999
2 66912  51.6264  89.0101 0003009  64.7698 295.3608 15.62778625 14479
ISS OBJECT XZ           
1 67683U 98067XZ  26063.31738248  .00052289  00000+0  87421-3 0  9993
2 67683  51.6304  98.5346 0009491 167.7937 192.3284 15.51337660  3952
GXIBA-1                 
1 67684U 98067YA  26064.45583860  .00080338  00000+0  12309-2 0  9996
2 67684  51.6299  92.6362 0010970 161.6042 198.5348 15.53561731  4133
CORAL                   
1 67685U 98067YB  26064.34454097  .00046853  00000+0  77286-3 0  9994
2 67685  51.6309  93.3938 0011325 167.4976 192.6297 15.51741434  4112
ISS OBJECT YC           
1 67686U 98067YC  26064.08285944  .00055661  00000+0  90337-3 0  9998
2 67686  51.6311  94.6478 0007743 134.4449 225.7176 15.52157473  4071
LEOPARD                 
1 67687U 98067YD  26064.47497779  .00046527  00000+0  77252-3 0  9995
2 67687  51.6307  92.7649 0007782 140.1506 220.0056 15.51598294  4059
ISS OBJECT YE           
1 67688U 98067YE  26063.50513603  .00064836  00000+0  10599-2 0  9997
2 67688  51.6315  97.5383 0007786 134.7310 225.4314 15.51890022  3906
